OBJECT_NAME,OBJECT_ID,EPOCH,MEAN_MOTION,ECCENTRICITY,INCLINATION,RA_OF_ASC_NODE,ARG_OF_PERICENTER,MEAN_ANOMALY,EPHEMERIS_TYPE,CLASSIFICATION_TYPE,NORAD_CAT_ID,ELEMENT_SET_NO,REV_AT_EPOCH,BSTAR,MEAN_MOTION_DOT,MEAN_MOTION_DDOT
ONEWEB-0397,2021-132J,2023-05-28T20:57:46.994976,13.18686183,.0002271,87.9188,197.1099,104.1635,255.9749,0,U,50477,999,7462,-.65922E-4,-.13E-6,0
ONEWEB-0398,2021-132K,2023-05-28T19:52:30.239328,13.11418389,.0001405,87.8915,242.6337,102.1720,257.9566,0,U,50478,999,6942,-.13692E-2,-.473E-5,0
ONEWEB-0399,2021-132L,2023-05-28T19:34:09.828192,13.11413887,.0002344,87.8911,242.6483,102.8554,257.2836,0,U,50479,999,6941,-.9879E-3,-.337E-5,0
ONEWEB-0400,2021-132M,2023-05-28T20:27:26.153856,13.18684143,.0001937,87.9262,197.1570,92.9583,267.1771,0,U,50480,999,7461,-.11224E-3,-.31E-6,0
ONEWEB-0401,2021-132N,2023-05-28T21:28:08.200704,13.18685037,.0002619,87.9253,197.1102,98.7219,261.4209,0,U,50481,999,7462,-.13581E-3,-.41E-6,0
ONEWEB-0402,2021-132P,2023-05-28T20:39:34.055712,13.18686028,.0002792,87.9261,197.1563,89.7714,270.3738,0,U,50482,999,7464,-.1869E-3,-.61E-6,0
ONEWEB-0403,2021-132Q,2023-05-28T21:12:58.176288,13.18687041,.0002376,87.9231,197.1414,101.2977,258.8422,0,U,50483,999,7460,.64923E-4,.39E-6,0
ONEWEB-0404,2021-132R,2023-05-28T19:06:43.408800,13.11414719,.0002222,87.8909,242.6096,122.1636,237.9707,0,U,50484,999,6950,.10586E-2,.388E-5,0
ONEWEB-0405,2021-132S,2023-05-28T16:47:25.509984,13.18683617,.0002756,87.9258,197.1475,99.3644,260.7800,0,U,50485,999,7497,.20544E-4,.21E-6,0
ONEWEB-0406,2021-132T,2023-05-28T21:19:00.815232,13.18687260,.000214,87.9254,197.1125,111.8560,248.2800,0,U,50486,999,7463,-.3646E-4,-.1E-7,0
ONEWEB-0407,2021-132U,2023-05-28T21:09:54.964224,13.18686631,.0002338,87.9165,197.1254,99.8866,260.2530,0,U,50487,999,7457,.12747E-4,.18E-6,0
ONEWEB-0409,2021-132V,2023-05-28T19:03:40.207968,13.11416613,.0001727,87.8920,242.6192,122.2824,237.8471,0,U,50488,999,6939,.13109E-2,.477E-5,0
ONEWEB-0412,2021-132W,2023-05-28T20:54:43.433856,13.18682994,.0002865,87.9258,197.1493,99.8211,260.3245,0,U,50489,999,7466,.42518E-4,.3E-6,0
ONEWEB-0413,2021-132X,2023-05-28T21:00:48.715776,13.18686653,.000265,87.9172,197.1454,95.8716,264.2718,0,U,50490,999,7460,.12917E-3,.64E-6,0
ONEWEB-0414,2021-132Y,2023-05-28T20:41:06.010368,13.18685060,.000252,87.9172,197.1776,103.9759,256.1653,0,U,50491,999,7463,-.17005E-3,-.54E-6,0
ONEWEB-0417,2021-132Z,2023-05-29T04:08:43.128960,13.18688854,.0001885,87.9257,197.1016,104.6349,255.4992,0,U,50492,999,7594,.81556E-3,.334E-5,0
ONEWEB-0418,2021-132AA,2023-05-28T21:11:25.260000,13.18684660,.0001914,87.9258,197.1057,114.1644,245.9688,0,U,50493,999,7467,-.20111E-4,.5E-7,0
ONEWEB-0419,2021-132AB,2023-05-29T04:48:12.394080,13.18684058,.0001708,87.9264,197.0642,97.5943,262.5383,0,U,50494,999,7592,.94984E-4,.5E-6,0
ONEWEB-0420,2021-132AC,2023-05-28T20:42:35.480160,13.18683367,.0002184,87.9261,197.1417,84.8329,275.3052,0,U,50495,999,7458,-.791E-4,-.18E-6,0
ONEWEB-0421,2021-132AD,2023-05-28T20:33:30.043008,13.18685715,.0002703,87.9260,197.1502,101.1125,259.0312,0,U,50496,999,7462,-.12091E-3,-.35E-6,0
ONEWEB-0424,2021-132AE,2023-05-28T21:25:06.631104,13.18686414,.0001659,87.9259,197.1486,89.2451,270.8871,0,U,50497,999,7465,.75426E-4,.43E-6,0
ONEWEB-0426,2021-132AF,2023-05-28T15:02:39.111648,13.18683798,.000246,87.9258,197.1829,108.6430,251.4969,0,U,50498,999,7456,.39899E-4,.29E-6,0
ONEWEB-0427,2021-132AG,2023-05-28T21:22:02.485920,13.18683663,.0001942,87.9263,197.1496,105.5642,254.5705,0,U,50499,999,7462,-.12988E-3,-.38E-6,0
ONEWEB-0429,2021-132AH,2023-05-28T21:03:50.532480,13.18681571,.000205,87.9241,197.1334,94.9672,265.1694,0,U,50500,999,7459,.74123E-4,.42E-6,0
ONEWEB-0430,2021-132AJ,2023-05-28T20:48:41.563008,13.18680995,.0001853,87.9216,197.1496,89.6026,270.5318,0,U,50501,999,7463,-.93758E-4,-.24E-6,0
ONEWEB-0432,2021-132AK,2023-05-28T21:34:12.627264,13.18687462,.0002136,87.9260,197.1475,94.5572,265.5804,0,U,50502,999,7459,-.11272E-3,-.32E-6,0
ONEWEB-0440,2021-132AL,2023-05-28T21:15:59.163552,13.18693377,.0002933,87.9263,197.1598,97.7681,262.3785,0,U,50503,999,7458,.54674E-4,.34E-6,0
ONEWEB-0450,2021-132AM,2023-05-28T21:06:54.019296,13.18684479,.0002406,87.9263,197.1660,84.2735,275.8671,0,U,50504,999,7461,.45172E-4,.31E-6,0
TJS-9,2021-135A,2023-05-28T21:22:42.595392,1.00270713,.000436,0.0461,279.6080,116.4702,307.9831,0,U,50574,999,525,0,-.286E-5,0
STARLINK-3321,2022-001A,2023-05-28T20:43:16.526208,15.08843844,.0001171,53.2177,49.3393,89.9298,270.1828,0,U,50803,999,7705,.13531E-3,.1866E-4,0
STARLINK-3323,2022-001B,2023-05-29T02:18:26.253216,15.08854045,.0001188,53.2192,38.2925,97.4255,262.6872,0,U,50804,999,7847,.13335E-3,.1836E-4,0
STARLINK-3333,2022-001C,2023-05-29T02:13:08.450688,15.08850467,.000125,53.2180,38.3121,85.7772,274.3363,0,U,50805,999,7849,.15194E-3,.2132E-4,0
STARLINK-3335,2022-001D,2023-05-28T22:57:05.003424,15.08843826,.000118,53.2181,38.9247,87.4432,272.6696,0,U,50806,999,7847,.114E-3,.1527E-4,0
STARLINK-3353,2022-001E,2023-05-29T01:46:39.153792,15.08848702,.0000945,53.2176,38.3956,92.4317,267.6783,0,U,50807,999,7849,.22367E-3,.3275E-4,0
STARLINK-3355,2022-001F,2023-05-29T01:57:14.610240,15.08851737,.000121,53.2186,38.3637,91.5268,268.5863,0,U,50808,999,7847,.17381E-3,.248E-4,0
STARLINK-3232,2022-001G,2023-05-28T21:16:23.972448,15.08841423,.0001202,53.2187,39.2377,86.7277,273.3853,0,U,50809,999,7719,.70033E-4,.827E-5,0
STARLINK-3348,2022-001H,2023-05-29T01:51:57.232800,15.08848884,.0001078,53.2173,38.3800,94.7358,265.3757,0,U,50810,999,7847,.32923E-3,.4957E-4,0
STARLINK-3347,2022-001J,2023-05-29T01:41:21.271776,15.08852856,.0000995,53.2175,38.4107,108.3891,251.7209,0,U,50811,999,7850,.37117E-3,.5626E-4,0
STARLINK-3338,2022-001K,2023-05-29T02:39:39.268224,15.08847889,.0001151,53.2179,38.3386,88.3282,271.7842,0,U,50812,999,7847,.12599E-3,.1718E-4,0
STARLINK-3349,2022-001L,2023-05-29T03:06:07.837632,15.08844749,.0001166,53.2182,38.0972,81.0589,279.0535,0,U,50813,999,7848,.52883E-4,.554E-5,0
STARLINK-3324,2022-001M,2023-05-29T02:43:36.861312,15.08850410,.0001316,53.2193,48.2167,89.9661,270.1482,0,U,50814,999,7836,.16645E-3,.2363E-4,0
STARLINK-3234,2022-001N,2023-05-28T20:37:58.594944,15.08845250,.0001105,53.2186,49.3545,95.8558,264.2560,0,U,50815,999,7705,.48579E-4,.486E-5,0
STARLINK-3342,2022-001P,2023-05-29T02:17:07.362240,15.08850117,.0001247,53.2182,48.2995,97.6703,262.4430,0,U,50816,999,7836,.25342E-3,.3749E-4,0
STARLINK-3341,2022-001Q,2023-05-28T17:21:54.469440,15.08843531,.0001176,53.2183,49.9679,87.5861,272.5265,0,U,50817,999,7703,.80764E-4,.998E-5,0
STARLINK-3336,2022-001R,2023-05-28T21:41:34.042272,15.08842648,.0001271,53.2188,49.1640,99.9471,260.1665,0,U,50818,999,7705,.12316E-3,.1673E-4,0
STARLINK-3327,2022-001S,2023-05-29T01:02:55.863168,15.08847650,.0001253,53.2191,48.5305,88.1496,271.9640,0,U,50819,999,7828,.13034E-3,.1788E-4,0
STARLINK-3339,2022-001T,2023-05-29T03:47:13.936416,15.08800306,.00016,53.2189,48.0187,110.6102,249.5062,0,U,50820,999,7837,.94414E-3,.14754E-3,0
STARLINK-3346,2022-001U,2023-05-29T00:16:37.107840,15.08844189,.0001253,53.2182,48.6863,82.9209,277.1925,0,U,50821,999,7832,.13689E-3,.1892E-4,0
STARLINK-3343,2022-001V,2023-05-28T21:15:04.449888,15.08839447,.0000855,53.2178,49.2415,86.8132,273.2958,0,U,50822,999,7705,.99553E-4,.1297E-4,0
STARLINK-3334,2022-001W,2023-05-28T22:02:45.699936,15.08846019,.0001042,53.2191,49.0908,91.1769,268.9342,0,U,50823,999,7706,.13932E-3,.1931E-4,0
STARLINK-3340,2022-001X,2023-05-29T00:20:32.085600,15.08850935,.0001178,53.2185,48.6615,86.7901,273.3226,0,U,50824,999,7834,.22444E-4,.69E-6,0
STARLINK-3332,2022-001Y,2023-05-28T21:20:22.400160,15.08840491,.0001172,53.2186,49.2242,80.6852,279.4272,0,U,50825,999,7705,.86217E-4,.1085E-4,0
STARLINK-3337,2022-001Z,2023-05-29T03:10:06.719808,15.08846853,.0001353,53.2184,48.1301,98.2453,261.8693,0,U,50826,999,7837,.86192E-4,.1084E-4,0
STARLINK-3329,2022-001AA,2023-05-29T02:22:25.220928,15.08849597,.0001122,53.2176,48.2837,86.2140,273.8980,0,U,50827,999,7835,.9701E-4,.1257E-4,0
STARLINK-3290,2022-001AB,2023-05-29T00:27:12.178944,15.08840950,.0000958,53.2186,48.5339,80.8227,279.2874,0,U,50828,999,7835,.57485E-4,.627E-5,0
STARLINK-3294,2022-001AC,2023-05-29T02:33:00.828576,15.08851977,.0001097,53.2197,48.2502,91.4333,268.6784,0,U,50829,999,7835,.15444E-3,.2172E-4,0
STARLINK-3278,2022-001AD,2023-05-29T02:58:11.390880,15.08843407,.0001114,53.2176,58.1777,88.7674,271.3446,0,U,50830,999,7822,.12507E-3,.1703E-4,0
STARLINK-3299,2022-001AE,2023-05-28T20:53:53.077344,15.08844995,.0001269,53.2177,49.3721,84.7298,275.3839,0,U,50831,999,7705,.14296E-3,.1988E-4,0
STARLINK-3328,2022-001AF,2023-05-29T01:17:30.412608,15.08844025,.0001124,53.2180,58.4851,82.7221,277.3898,0,U,50832,999,7819,.12935E-3,.1772E-4,0
STARLINK-3316,2022-001AG,2023-05-29T02:30:56.581056,15.17719091,.0000884,53.2190,43.0872,72.3638,287.7454,0,U,50833,999,7846,-.42436E-3,-.8967E-4,0
STARLINK-3331,2022-001AH,2023-05-29T01:01:36.436512,15.08851471,.0001083,53.2158,58.5377,88.7599,271.3517,0,U,50834,999,7821,.25722E-3,.3809E-4,0
STARLINK-3310,2022-001AJ,2023-05-29T04:03:09.482400,15.08845463,.0001203,53.2181,57.9774,84.5481,275.5648,0,U,50835,999,7821,.12105E-3,.1639E-4,0
STARLINK-3330,2022-001AK,2023-05-29T01:06:54.579456,15.08844618,.000145,53.2187,58.5218,107.9813,252.1337,0,U,50836,999,7819,.1411E-3,.1959E-4,0
STARLINK-3318,2022-001AL,2023-05-29T00:09:56.205792,15.08848370,.0001161,53.2184,48.6936,89.1283,270.9842,0,U,50837,999,7827,.13302E-3,.183E-4,0
STARLINK-3322,2022-001AM,2023-05-29T04:22:27.413472,15.08850369,.0001128,53.2190,53.4459,102.0994,258.0125,0,U,50838,999,7822,.16272E-3,.2304E-4,0
STARLINK-3320,2022-001AN,2023-05-29T03:45:52.640928,15.08849781,.0001196,53.2183,58.0173,94.9928,265.1200,0,U,50839,999,7822,.97788E-4,.1269E-4,0
STARLINK-3295,2022-001AP,2023-05-29T00:29:48.762528,15.08843400,.0001191,53.2181,58.6304,104.4153,255.6972,0,U,50840,999,7821,.82669E-4,.1028E-4,0
